BADR-5                  
1 36592U 10025A   26074.28662479  .00000144  00000+0  00000+0 0  9993
2 36592   0.0595 113.0856 0001696 306.5393 242.4090  1.00272939 52271
COMS 1                  
1 36744U 10032A   26073.95044337 -.00000342  00000+0  00000+0 0  9991
2 36744   4.5606  76.7030 0000805 289.7082 276.4638  1.00272483 50142
ARABSAT-5A              
1 36745U 10032B   26074.28766479  .00000153  00000+0  00000+0 0  9996
2 36745   0.0679  45.1232 0003051 343.9126 277.9659  1.00277159 57709
ECHOSTAR 15             
1 36792U 10034A   26074.25811132 -.00000001  00000+0  00000+0 0  9997
2 36792   0.0216 252.7336 0001945 107.4843 146.7502  1.00272944 57389
BEIDOU-2 IGSO-1         
1 36828U 10036A   26073.67984281 -.00000142  00000+0  00000+0 0  9996
2 36828  54.2922 163.8180 0054578 219.4923 137.9589  1.00250102 57149
NILESAT 201             
1 36830U 10037A   26074.20888446 -.00000059  00000+0  00000+0 0  9993
2 36830   0.0180 187.7906 0002534 164.2910 248.9174  1.00272270 57431
RASCOM-QAF 1R           
1 36831U 10037B   26074.28220477  .00000017  00000+0  00000+0 0  9999
2 36831   0.0160 113.9587 0006529 238.9227 284.4782  1.00270549 57363
AEHF-1 (USA 214)        
1 36868U 10039A   26074.14492418  .00000152  00000+0  00000+0 0  9992
2 36868   7.9864  69.2703 0004291 282.4494 263.1365  1.00270528 52719
XM-5                    
1 37185U 10053A   26073.97349679 -.00000024  00000+0  00000+0 0  9990
2 37185   0.0698 271.8650 0003580 256.4013 239.5673  1.00270062 56537
BSAT-3B                 
1 37207U 10056B   26074.01813031 -.00000351  00000+0  00000+0 0  9995
2 37207   0.0602 237.0479 0001355  45.8598   6.0862  1.00272863 51157
BEIDOU-2 G4             
1 37210U 10057A   26074.24536448 -.00000111  00000+0  00000+0 0  9993
2 37210   3.4121  69.4786 0008093 213.4177 138.3151  1.00272500 56348
SKYTERRA 1              
1 37218U 10061A   26074.04759711 -.00000116  00000+0  00000+0 0  9999
2 37218   4.9238  50.8967 0001586 329.1588  68.4206  1.00272422 56254
HYLAS 1                 
1 37237U 10065A   26074.13447385  .00000128  00000+0  00000+0 0  9997
2 37237   5.4032  74.1655 0008152 347.7481 173.0106  1.00613558  5941
INTELSAT 17 (IS-17)     
1 37238U 10065B   26074.09697559 -.00000002  00000+0  00000+0 0  9995
2 37238   0.0139 172.4383 0002551 198.4742 262.6854  1.00271955 52307
BEIDOU-2 IGSO-2         
1 37256U 10068A   26069.49439653 -.00000157  00000+0  00000+0 0  9996
2 37256  47.7215 273.0501 0047490 213.2827 326.5355  1.00257833 55804
EUTELSAT KA-SAT 9A      
1 37258U 10069A   26074.14076417  .00000061  00000+0  00000+0 0  9995
2 37258   0.0568 357.1903 0002686 149.3164  85.8940  1.00271329 43066
HISPASAT 30W-5          
1 37264U 10070A   26074.24859368 -.00000217  00000+0  00000+0 0  9993
2 37264   0.0331 119.3487 0003576 260.1918 212.8064  1.00271125 52247
